{
    "links": {
        "self": "http://www.neowsapp.com/rest/v1/neo/3879312?api_key=iIulBulltgU6a56xZRHN4H3l9WmuAYTsLGpBGhQ2"
    },
    "id": "3879312",
    "neo_reference_id": "3879312",
    "name": "(2019 UK3)",
    "designation": "2019 UK3",
    "nasa_jpl_url": "http://ssd.jpl.nasa.gov/sbdb.cgi?sstr=3879312",
    "absolute_magnitude_h": 26.7,
    "estimated_diameter": {
        "kilometers": {
            "estimated_diameter_min": 0.0121494041,
            "estimated_diameter_max": 0.0271668934
        },
        "meters": {
            "estimated_diameter_min": 12.14940408,
            "estimated_diameter_max": 27.1668934089
        },
        "miles": {
            "estimated_diameter_min": 0.0075492874,
            "estimated_diameter_max": 0.0168807197
        },
        "feet": {
            "estimated_diameter_min": 39.8602508817,
            "estimated_diameter_max": 89.1302305717
        }
    },
    "is_potentially_hazardous_asteroid": false,
    "close_approach_data": [
        {
            "close_approach_date": "2019-10-20",
            "close_approach_date_full": "2019-Oct-20 13:59",
            "epoch_date_close_approach": 1571579940000,
            "relative_velocity": {
                "kilometers_per_second": "5.8029409785",
                "kilometers_per_hour": "20890.5875225132",
                "miles_per_hour": "12980.5986747527"
            },
            "miss_distance": {
                "astronomical": "0.0259190419",
                "lunar": "10.0825072991",
                "kilometers": "3877433.460680753",
                "miles": "2409325.4305622714"
            },
            "orbiting_body": "Earth"
        }
    ],
    "orbital_data": {
        "orbit_id": "5",
        "orbit_determination_date": "2019-12-03 19:58:44",
        "first_observation_date": "2019-10-22",
        "last_observation_date": "2019-11-05",
        "data_arc_in_days": 14,
        "observations_used": 36,
        "orbit_uncertainty": "7",
        "minimum_orbit_intersection": ".0214591",
        "jupiter_tisserand_invariant": "4.412",
        "epoch_osculation": "2459000.5",
        "eccentricity": ".3472708395923207",
        "semi_major_axis": "1.532365195127044",
        "inclination": "2.842150394558889",
        "ascending_node_longitude": "222.6465341280254",
        "orbital_period": "692.8541868307942",
        "perihelion_distance": "1.000219447253225",
        "perihelion_argument": "144.4089453021938",
        "aphelion_distance": "2.064510943000863",
        "perihelion_time": "2458760.407032826597",
        "mean_anomaly": "124.7498677575771",
        "mean_motion": ".5195898456595711",
        "equinox": "J2000",
        "orbit_class": {
            "orbit_class_type": "APO",
            "orbit_class_description": "Near-Earth asteroid orbits which cross the Earth’s orbit similar to that of 1862 Apollo",
            "orbit_class_range": "a (semi-major axis) > 1.0 AU; q (perihelion) < 1.017 AU"
        }
    },
    "is_sentry_object": false
}